# Running log file for GPS_BIIRM-8_(PRN_05) TLE data from Celestrack TLE repository (sourced from NORAD)

# Line 1 is: <line> <sat_num> <int_desig> <ep_yr_fracday> <1_der_mm> <2_der_mm> <drag> <eph_typ> <el_set> <cs>
# TLE Line 2 is: <line> <sat_num> <incl> <ra> <ecc> <peri> <m_anom> <m_mot> <rev_num> <cs>

#####################################################################
Mon, 01 Jun 2015 16:06:03 GMT
1 35752U 09043A   15152.16519605  .00000085  00000-0  00000+0 0  9997
2 35752  54.2322 189.7999 0040595  18.1766  27.4165  2.00575802 42433

